STARLINK-36561          
1 67537U 26014F   26035.25004630 -.00049728  00000+0 -26012-3 0  9992
2 67537  97.2791 278.4504 0001558 100.4082 271.2062 15.80834949  3317
STARLINK-36397          
1 67538U 26014G   26035.25004630 -.00616835  00000+0 -34148-2 0  9990
2 67538  97.2787 278.4523 0001354  72.9454 303.5080 15.81055942  3312
STARLINK-36573          
1 67539U 26014H   26035.25004630  .00013289  00000+0  70013-4 0  9996
2 67539  97.2788 278.4552 0001170 102.6667 279.9949 15.80816029  3319
STARLINK-36585          
1 67540U 26014J   26035.25004630 -.00038661  00000+0 -20153-3 0  9990
2 67540  97.2784 278.4565 0001572 108.5273 279.4200 15.80864679  3314
STARLINK-36579          
1 67541U 26014K   26035.25004630 -.00037216  00000+0 -19386-3 0  9992
2 67541  97.2788 278.4600 0001622 112.2674 282.9133 15.80873820  3314
STARLINK-35934          
1 67542U 26014L   26035.25004630 -.00062425  00000+0 -32690-3 0  9996
2 67542  97.2787 278.4637 0001638  82.1346 321.1938 15.80854385  3305
STARLINK-36581          
1 67543U 26014M   26035.25004630  .00043336  00000+0  22601-3 0  9996
2 67543  97.2788 278.4667 0001589  69.1214 341.0006 15.80801095  3312
STARLINK-36565          
1 67544U 26014N   26035.25004630  .00074192  00000+0  38608-3 0  9995
2 67544  97.2779 278.4679 0000854 122.7266 293.4247 15.80742462  3312
STARLINK-36583          
1 67545U 26014P   26035.25004630 -.00147020  00000+0 -77699-3 0  9992
2 67545  97.2778 278.4706 0000972  83.3595 338.8245 15.80895291  3312
STARLINK-36580          
1 67546U 26014Q   26035.25004630 -.00423953  00000+0 -22923-2 0  9994
2 67546  97.2778 278.4736 0001374  89.9072 339.9634 15.81092542  3318
STARLINK-36584          
1 67547U 26014R   26035.25004630 -.00654142  00000+0 -35998-2 0  9997
2 67547  97.2775 278.4756 0001004  93.0680 342.1834 15.81279422  3311
STARLINK-36586          
1 67548U 26014S   26035.25004630 -.01070638  00000+0 -60808-2 0  9999
2 67548  97.2783 278.4795 0001429  87.0575 355.7349 15.81643050  3314
