CCSDS_OMM_VERS = 2.0
CREATION_DATE  = 
ORIGINATOR     = 

OBJECT_NAME    = STARLINK-36561
OBJECT_ID      = 2026-014F
CENTER_NAME    = EARTH
REF_FRAME      = TEME
TIME_SYSTEM    = UTC
MEAN_ELEMENT_THEORY = SGP/SGP4

EPOCH          = 2026-02-04T06:00:04.000320
MEAN_MOTION    = 15.80834949
ECCENTRICITY   = .00015585
INCLINATION    = 97.2791
RA_OF_ASC_NODE = 278.4504
ARG_OF_PERICENTER = 100.4082
MEAN_ANOMALY   = 271.2062

EPHEMERIS_TYPE = 0
CLASSIFICATION_TYPE = U
NORAD_CAT_ID   = 67537
ELEMENT_SET_NO = 999
REV_AT_EPOCH   = 331
BSTAR          = -.26011927E-3
MEAN_MOTION_DOT = -.49728E-3
MEAN_MOTION_DDOT = 0

CCSDS_OMM_VERS = 2.0
CREATION_DATE  = 
ORIGINATOR     = 

OBJECT_NAME    = STARLINK-36397
OBJECT_ID      = 2026-014G
CENTER_NAME    = EARTH
REF_FRAME      = TEME
TIME_SYSTEM    = UTC
MEAN_ELEMENT_THEORY = SGP/SGP4

EPOCH          = 2026-02-04T06:00:04.000320
MEAN_MOTION    = 15.81055942
ECCENTRICITY   = .00013548
INCLINATION    = 97.2787
RA_OF_ASC_NODE = 278.4523
ARG_OF_PERICENTER = 72.9454
MEAN_ANOMALY   = 303.5080

EPHEMERIS_TYPE = 0
CLASSIFICATION_TYPE = U
NORAD_CAT_ID   = 67538
ELEMENT_SET_NO = 999
REV_AT_EPOCH   = 331
BSTAR          = -.34147953E-2
MEAN_MOTION_DOT = -.616835E-2
MEAN_MOTION_DDOT = 0

CCSDS_OMM_VERS = 2.0
CREATION_DATE  = 
ORIGINATOR     = 

OBJECT_NAME    = STARLINK-36573
OBJECT_ID      = 2026-014H
CENTER_NAME    = EARTH
REF_FRAME      = TEME
TIME_SYSTEM    = UTC
MEAN_ELEMENT_THEORY = SGP/SGP4

EPOCH          = 2026-02-04T06:00:04.000320
MEAN_MOTION    = 15.80816029
ECCENTRICITY   = .00011706
INCLINATION    = 97.2788
RA_OF_ASC_NODE = 278.4552
ARG_OF_PERICENTER = 102.6667
MEAN_ANOMALY   = 279.9949

EPHEMERIS_TYPE = 0
CLASSIFICATION_TYPE = U
NORAD_CAT_ID   = 67539
ELEMENT_SET_NO = 999
REV_AT_EPOCH   = 331
BSTAR          = .70013149E-4
MEAN_MOTION_DOT = .13289E-3
MEAN_MOTION_DDOT = 0

CCSDS_OMM_VERS = 2.0
CREATION_DATE  = 
ORIGINATOR     = 

OBJECT_NAME    = STARLINK-36585
OBJECT_ID      = 2026-014J
CENTER_NAME    = EARTH
REF_FRAME      = TEME
TIME_SYSTEM    = UTC
MEAN_ELEMENT_THEORY = SGP/SGP4

EPOCH          = 2026-02-04T06:00:04.000320
MEAN_MOTION    = 15.80864679
ECCENTRICITY   = .00015728
INCLINATION    = 97.2784
RA_OF_ASC_NODE = 278.4565
ARG_OF_PERICENTER = 108.5273
MEAN_ANOMALY   = 279.4200

EPHEMERIS_TYPE = 0
CLASSIFICATION_TYPE = U
NORAD_CAT_ID   = 67540
ELEMENT_SET_NO = 999
REV_AT_EPOCH   = 331
BSTAR          = -.2015337E-3
MEAN_MOTION_DOT = -.38661E-3
MEAN_MOTION_DDOT = 0

CCSDS_OMM_VERS = 2.0
CREATION_DATE  = 
ORIGINATOR     = 

OBJECT_NAME    = STARLINK-36579
OBJECT_ID      = 2026-014K
CENTER_NAME    = EARTH
REF_FRAME      = TEME
TIME_SYSTEM    = UTC
MEAN_ELEMENT_THEORY = SGP/SGP4

EPOCH          = 2026-02-04T06:00:04.000320
MEAN_MOTION    = 15.80873820
ECCENTRICITY   = .00016224
INCLINATION    = 97.2788
RA_OF_ASC_NODE = 278.4600
ARG_OF_PERICENTER = 112.2674
MEAN_ANOMALY   = 282.9133

EPHEMERIS_TYPE = 0
CLASSIFICATION_TYPE = U
NORAD_CAT_ID   = 67541
ELEMENT_SET_NO = 999
REV_AT_EPOCH   = 331
BSTAR          = -.19385645E-3
MEAN_MOTION_DOT = -.37216E-3
MEAN_MOTION_DDOT = 0

CCSDS_OMM_VERS = 2.0
CREATION_DATE  = 
ORIGINATOR     = 

OBJECT_NAME    = STARLINK-35934
OBJECT_ID      = 2026-014L
CENTER_NAME    = EARTH
REF_FRAME      = TEME
TIME_SYSTEM    = UTC
MEAN_ELEMENT_THEORY = SGP/SGP4

EPOCH          = 2026-02-04T06:00:04.000320
MEAN_MOTION    = 15.80854385
ECCENTRICITY   = .00016381
INCLINATION    = 97.2787
RA_OF_ASC_NODE = 278.4637
ARG_OF_PERICENTER = 82.1346
MEAN_ANOMALY   = 321.1938

EPHEMERIS_TYPE = 0
CLASSIFICATION_TYPE = U
NORAD_CAT_ID   = 67542
ELEMENT_SET_NO = 999
REV_AT_EPOCH   = 330
BSTAR          = -.32690313E-3
MEAN_MOTION_DOT = -.62425E-3
MEAN_MOTION_DDOT = 0

CCSDS_OMM_VERS = 2.0
CREATION_DATE  = 
ORIGINATOR     = 

OBJECT_NAME    = STARLINK-36581
OBJECT_ID      = 2026-014M
CENTER_NAME    = EARTH
REF_FRAME      = TEME
TIME_SYSTEM    = UTC
MEAN_ELEMENT_THEORY = SGP/SGP4

EPOCH          = 2026-02-04T06:00:04.000320
MEAN_MOTION    = 15.80801095
ECCENTRICITY   = .00015898
INCLINATION    = 97.2788
RA_OF_ASC_NODE = 278.4667
ARG_OF_PERICENTER = 69.1214
MEAN_ANOMALY   = 341.0006

EPHEMERIS_TYPE = 0
CLASSIFICATION_TYPE = U
NORAD_CAT_ID   = 67543
ELEMENT_SET_NO = 999
REV_AT_EPOCH   = 331
BSTAR          = .22600788E-3
MEAN_MOTION_DOT = .43336E-3
MEAN_MOTION_DDOT = 0

CCSDS_OMM_VERS = 2.0
CREATION_DATE  = 
ORIGINATOR     = 

OBJECT_NAME    = STARLINK-36565
OBJECT_ID      = 2026-014N
CENTER_NAME    = EARTH
REF_FRAME      = TEME
TIME_SYSTEM    = UTC
MEAN_ELEMENT_THEORY = SGP/SGP4

EPOCH          = 2026-02-04T06:00:04.000320
MEAN_MOTION    = 15.80742462
ECCENTRICITY   = .00008544
INCLINATION    = 97.2779
RA_OF_ASC_NODE = 278.4679
ARG_OF_PERICENTER = 122.7266
MEAN_ANOMALY   = 293.4247

EPHEMERIS_TYPE = 0
CLASSIFICATION_TYPE = U
NORAD_CAT_ID   = 67544
ELEMENT_SET_NO = 999
REV_AT_EPOCH   = 331
BSTAR          = .38608487E-3
MEAN_MOTION_DOT = .74192E-3
MEAN_MOTION_DDOT = 0

CCSDS_OMM_VERS = 2.0
CREATION_DATE  = 
ORIGINATOR     = 

OBJECT_NAME    = STARLINK-36583
OBJECT_ID      = 2026-014P
CENTER_NAME    = EARTH
REF_FRAME      = TEME
TIME_SYSTEM    = UTC
MEAN_ELEMENT_THEORY = SGP/SGP4

EPOCH          = 2026-02-04T06:00:04.000320
MEAN_MOTION    = 15.80895291
ECCENTRICITY   = .00009728
INCLINATION    = 97.2778
RA_OF_ASC_NODE = 278.4706
ARG_OF_PERICENTER = 83.3595
MEAN_ANOMALY   = 338.8245

EPHEMERIS_TYPE = 0
CLASSIFICATION_TYPE = U
NORAD_CAT_ID   = 67545
ELEMENT_SET_NO = 999
REV_AT_EPOCH   = 331
BSTAR          = -.77698987E-3
MEAN_MOTION_DOT = -.14702E-2
MEAN_MOTION_DDOT = 0

CCSDS_OMM_VERS = 2.0
CREATION_DATE  = 
ORIGINATOR     = 

OBJECT_NAME    = STARLINK-36580
OBJECT_ID      = 2026-014Q
CENTER_NAME    = EARTH
REF_FRAME      = TEME
TIME_SYSTEM    = UTC
MEAN_ELEMENT_THEORY = SGP/SGP4

EPOCH          = 2026-02-04T06:00:04.000320
MEAN_MOTION    = 15.81092542
ECCENTRICITY   = .00013748
INCLINATION    = 97.2778
RA_OF_ASC_NODE = 278.4736
ARG_OF_PERICENTER = 89.9072
MEAN_ANOMALY   = 339.9634

EPHEMERIS_TYPE = 0
CLASSIFICATION_TYPE = U
NORAD_CAT_ID   = 67546
ELEMENT_SET_NO = 999
REV_AT_EPOCH   = 331
BSTAR          = -.22923249E-2
MEAN_MOTION_DOT = -.423953E-2
MEAN_MOTION_DDOT = 0

CCSDS_OMM_VERS = 2.0
CREATION_DATE  = 
ORIGINATOR     = 

OBJECT_NAME    = STARLINK-36584
OBJECT_ID      = 2026-014R
CENTER_NAME    = EARTH
REF_FRAME      = TEME
TIME_SYSTEM    = UTC
MEAN_ELEMENT_THEORY = SGP/SGP4

EPOCH          = 2026-02-04T06:00:04.000320
MEAN_MOTION    = 15.81279422
ECCENTRICITY   = .00010044
INCLINATION    = 97.2775
RA_OF_ASC_NODE = 278.4756
ARG_OF_PERICENTER = 93.0680
MEAN_ANOMALY   = 342.1834

EPHEMERIS_TYPE = 0
CLASSIFICATION_TYPE = U
NORAD_CAT_ID   = 67547
ELEMENT_SET_NO = 999
REV_AT_EPOCH   = 331
BSTAR          = -.35998243E-2
MEAN_MOTION_DOT = -.654142E-2
MEAN_MOTION_DDOT = 0

CCSDS_OMM_VERS = 2.0
CREATION_DATE  = 
ORIGINATOR     = 

OBJECT_NAME    = STARLINK-36586
OBJECT_ID      = 2026-014S
CENTER_NAME    = EARTH
REF_FRAME      = TEME
TIME_SYSTEM    = UTC
MEAN_ELEMENT_THEORY = SGP/SGP4

EPOCH          = 2026-02-04T06:00:04.000320
MEAN_MOTION    = 15.81643050
ECCENTRICITY   = .00014296
INCLINATION    = 97.2783
RA_OF_ASC_NODE = 278.4795
ARG_OF_PERICENTER = 87.0575
MEAN_ANOMALY   = 355.7349

EPHEMERIS_TYPE = 0
CLASSIFICATION_TYPE = U
NORAD_CAT_ID   = 67548
ELEMENT_SET_NO = 999
REV_AT_EPOCH   = 331
BSTAR          = -.60807916E-2
MEAN_MOTION_DOT = -.1070638E-1
MEAN_MOTION_DDOT = 0

